CTC1_L_00566063-01
1 86017U 24826GW  26037.47809028  .00000000  00000+0  00000-0 0  9999
2 86017  99.3000 148.8000 0000000   0.0000 297.6000 13.83924389    11
CTC1_L_00566063-02
1 86018U 25862RW  26037.47809028  .00000000  00000+0  00000-0 0  9991
2 86018  99.3000 148.8000 0000000   0.0000 117.6000 13.83924389    13
CTC1_L_00566064-01
1 86019U 22309GC  26037.47809028  .00000000  00000+0  00000-0 0  9995
2 86019  99.3000 151.2000 0000000   0.0000 302.4000 13.83924389    16
CTC1_L_00566064-02
1 86020U 24128VK  26037.47809028  .00000000  00000+0  00000-0 0  9998
2 86020  99.3000 151.2000 0000000   0.0000 122.4000 13.83924389    18
CTC1_L_00566065-01
1 86021U 24993RO  26037.47809028  .00000000  00000+0  00000-0 0  9999
2 86021  99.3000 153.6000 0000000   0.0000 307.2000 13.83924389    18
CTC1_L_00566065-02
1 86022U 24474RL  26037.47809028  .00000000  00000+0  00000-0 0  9994
2 86022  99.3000 153.6000 0000000   0.0000 127.2000 13.83924389    19
CTC1_L_00566066-01
1 86023U 24559HZ  26037.47809028  .00000000  00000+0  00000-0 0  9999
2 86023  99.3000 156.0000 0000000   0.0000 312.0000 13.83924389    11
CTC1_L_00566066-02
1 86024U 24592EQ  26037.47809028  .00000000  00000+0  00000-0 0  9997
2 86024  99.3000 156.0000 0000000   0.0000 132.0000 13.83924389    12
CTC1_L_00566067-01
1 86025U 25612PR  26037.47809028  .00000000  00000+0  00000-0 0  9992
2 86025  99.3000 158.4000 0000000   0.0000 316.8000 13.83924389    11
CTC1_L_00566067-02
1 86026U 23709IA  26037.47809028  .00000000  00000+0  00000-0 0  9998
2 86026  99.3000 158.4000 0000000   0.0000 136.8000 13.83924389    12
CTC1_L_00566068-01
1 86027U 23079ZV  26037.47809028  .00000000  00000+0  00000-0 0  9999
2 86027  99.3000 160.8000 0000000   0.0000 321.6000 13.83924389    14
CTC1_L_00566068-02
1 86028U 23526WD  26037.47809028  .00000000  00000+0  00000-0 0  9997
2 86028  99.3000 160.8000 0000000   0.0000 141.6000 13.83924389    15
CTC1_L_00566069-01
1 86029U 22979CQ  26037.47809028  .00000000  00000+0  00000-0 0  9999
2 86029  99.3000 163.2000 0000000   0.0000 326.4000 13.83924389    16
CTC1_L_00566069-02
1 86030U 23114CD  26037.47809028  .00000000  00000+0  00000-0 0  9993
2 86030  99.3000 163.2000 0000000   0.0000 146.4000 13.83924389    18
CTC1_L_00566070-01
1 86031U 24947SE  26037.47809028  .00000000  00000+0  00000-0 0  9999
2 86031  99.3000 165.6000 0000000   0.0000 331.2000 13.83924389    19
CTC1_L_00566070-02
1 86032U 26747GK  26037.47809028  .00000000  00000+0  00000-0 0  9990
2 86032  99.3000 165.6000 0000000   0.0000 151.2000 13.83924389    10
CTC1_L_00566071-01
1 86033U 25830GQ  26037.47809028  .00000000  00000+0  00000-0 0  9993
2 86033  99.3000 168.0000 0000000   0.0000 336.0000 13.83924389    11
CTC1_L_00566071-02
1 86034U 24383VQ  26037.47809028  .00000000  00000+0  00000-0 0  9996
2 86034  99.3000 168.0000 0000000   0.0000 156.0000 13.83924389    12
CTC1_L_00566072-01
1 86035U 26820PV  26037.47809028  .00000000  00000+0  00000-0 0  9995
2 86035  99.3000 170.4000 0000000   0.0000 340.8000 13.83924389    13
CTC1_L_00566072-02
1 86036U 26815VX  26037.47809028  .00000000  00000+0  00000-0 0  9990
2 86036  99.3000 170.4000 0000000   0.0000 160.8000 13.83924389    14
CTC1_L_00566073-01
1 86037U 22346PE  26037.47809028  .00000000  00000+0  00000-0 0  9996
2 86037  99.3000 172.8000 0000000   0.0000 345.6000 13.83924389    14
CTC1_L_00566073-02
1 86038U 22546VR  26037.47809028  .00000000  00000+0  00000-0 0  9999
2 86038  99.3000 172.8000 0000000   0.0000 165.6000 13.83924389    15
CTC1_L_00566074-01
1 86039U 26888BW  26037.47809028  .00000000  00000+0  00000-0 0  9993
2 86039  99.3000 175.2000 0000000   0.0000 350.4000 13.83924389    17
CTC1_L_00566074-02
1 86040U 22277XI  26037.47809028  .00000000  00000+0  00000-0 0  9993
2 86040  99.3000 175.2000 0000000   0.0000 170.4000 13.83924389    19
CTC1_L_00566075-01
1 86041U 23753HW  26037.47809028  .00000000  00000+0  00000-0 0  9994
2 86041  99.3000 177.6000 0000000   0.0000 355.2000 13.83924389    19
CTC1_L_00566075-02
1 86042U 23710GU  26037.47809028  .00000000  00000+0  00000-0 0  9998
2 86042  99.3000 177.6000 0000000   0.0000 175.2000 13.83924389    10
CTC1_L_00566076-01
1 86043U 24266NS  26037.47809028  .00000000  00000+0  00000-0 0  9996
2 86043  99.3000 180.0000 0000000   0.0000   0.0000 13.83924389    14
CTC1_L_00566076-02
1 86044U 26689FO  26037.47809028  .00000000  00000+0  00000-0 0  9998
2 86044  99.3000 180.0000 0000000   0.0000 180.0000 13.83924389    14
CTC1_L_00566077-01
1 86045U 23450ZQ  26037.47809028  .00000000  00000+0  00000-0 0  9992
2 86045  99.3000 182.4000 0000000   0.0000   4.8000 13.83924389    14
CTC1_L_00566077-02
1 86046U 24450QI  26037.47809028  .00000000  00000+0  00000-0 0  9994
2 86046  99.3000 182.4000 0000000   0.0000 184.8000 13.83924389    14
CTC1_L_00566078-01
1 86047U 25101YK  26037.47809028  .00000000  00000+0  00000-0 0  9999
2 86047  99.3000 184.8000 0000000   0.0000   9.6000 13.83924389    15
CTC1_L_00566078-02
1 86048U 22138N   26037.47809028  .00000000  00000+0  00000-0 0  9997
2 86048  99.3000 184.8000 0000000   0.0000 189.6000 13.83924389    15
CTC1_L_00566079-01
1 86049U 22058YG  26037.47809028  .00000000  00000+0  00000-0 0  9999
2 86049  99.3000 187.2000 0000000   0.0000  14.4000 13.83924389    18
CTC1_L_00566079-02
1 86050U 26135LR  26037.47809028  .00000000  00000+0  00000-0 0  9991
2 86050  99.3000 187.2000 0000000   0.0000 194.4000 13.83924389    19
CTC1_L_00566080-01
1 86051U 26704CD  26037.47809028  .00000000  00000+0  00000-0 0  9994
2 86051  99.3000 189.6000 0000000   0.0000  19.2000 13.83924389    10
CTC1_L_00566080-02
1 86052U 25064DL  26037.47809028  .00000000  00000+0  00000-0 0  9993
2 86052  99.3000 189.6000 0000000   0.0000 199.2000 13.83924389    10
CTC1_L_00566081-01
1 86053U 23248P   26037.47809028  .00000000  00000+0  00000-0 0  9996
2 86053  99.3000 192.0000 0000000   0.0000  24.0000 13.83924389    14
CTC1_L_00566081-02
1 86054U 23953SX  26037.47809028  .00000000  00000+0  00000-0 0  9990
2 86054  99.3000 192.0000 0000000   0.0000 204.0000 13.83924389    15
CTC1_L_00566082-01
1 86055U 24562OF  26037.47809028  .00000000  00000+0  00000-0 0  9998
2 86055  99.3000 194.4000 0000000   0.0000  28.8000 13.83924389    14
CTC1_L_00566082-02
1 86056U 24431C   26037.47809028  .00000000  00000+0  00000-0 0  9994
2 86056  99.3000 194.4000 0000000   0.0000 208.8000 13.83924389    15
CTC1_L_00566083-01
1 86057U 26240ER  26037.47809028  .00000000  00000+0  00000-0 0  9995
2 86057  99.3000 196.8000 0000000   0.0000  33.6000 13.83924389    16
CTC1_L_00566083-02
1 86058U 23687GL  26037.47809028  .00000000  00000+0  00000-0 0  9998
2 86058  99.3000 196.8000 0000000   0.0000 213.6000 13.83924389    17
CTC1_L_00566084-01
1 86059U 24787DZ  26037.47809028  .00000000  00000+0  00000-0 0  9991
2 86059  99.3000 199.2000 0000000   0.0000  38.4000 13.83924389    18
CTC1_L_00566084-02
1 86060U 26074GB  26037.47809028  .00000000  00000+0  00000-0 0  9994
2 86060  99.3000 199.2000 0000000   0.0000 218.4000 13.83924389    10
CTC1_L_00566085-01
1 86061U 23138BM  26037.47809028  .00000000  00000+0  00000-0 0  9993
2 86061  99.3000 201.6000 0000000   0.0000  43.2000 13.83924389    13
CTC1_L_00566085-02
1 86062U 25733AJ  26037.47809028  .00000000  00000+0  00000-0 0  9997
2 86062  99.3000 201.6000 0000000   0.0000 223.2000 13.83924389    14
CTC1_L_00566086-01
1 86063U 26131OE  26037.47809028  .00000000  00000+0  00000-0 0  9991
2 86063  99.3000 204.0000 0000000   0.0000  48.0000 13.83924389    15
CTC1_L_00566086-02
1 86064U 25108OS  26037.47809028  .00000000  00000+0  00000-0 0  9995
2 86064  99.3000 204.0000 0000000   0.0000 228.0000 13.83924389    16
CTC1_L_00566087-01
1 86065U 26478NN  26037.47809028  .00000000  00000+0  00000-0 0  9997
2 86065  99.3000 206.4000 0000000   0.0000  52.8000 13.83924389    16
CTC1_L_00566087-02
1 86066U 25298YY  26037.47809028  .00000000  00000+0  00000-0 0  9997
2 86066  99.3000 206.4000 0000000   0.0000 232.8000 13.83924389    17
CTC1_L_00566088-01
1 86067U 25893U   26037.47809028  .00000000  00000+0  00000-0 0  9999
2 86067  99.3000 208.8000 0000000   0.0000  57.6000 13.83924389    17
CTC1_L_00566088-02
1 86068U 26558YE  26037.47809028  .00000000  00000+0  00000-0 0  9999
2 86068  99.3000 208.8000 0000000   0.0000 237.6000 13.83924389    18
CTC1_L_00566089-01
1 86069U 26047EM  26037.47809028  .00000000  00000+0  00000-0 0  9993
2 86069  99.3000 211.2000 0000000   0.0000  62.4000 13.83924389    11
CTC1_L_00566089-02
1 86070U 22378GE  26037.47809028  .00000000  00000+0  00000-0 0  9998
2 86070  99.3000 211.2000 0000000   0.0000 242.4000 13.83924389    13
CTC1_L_00566090-01
1 86071U 25431DW  26037.47809028  .00000000  00000+0  00000-0 0  9992
2 86071  99.3000 213.6000 0000000   0.0000  67.2000 13.83924389    13
CTC1_L_00566090-02
1 86072U 25010CU  26037.47809028  .00000000  00000+0  00000-0 0  9996
2 86072  99.3000 213.6000 0000000   0.0000 247.2000 13.83924389    14
CTC1_L_00566091-01
1 86073U 25318AD  26037.47809028  .00000000  00000+0  00000-0 0  9998
2 86073  99.3000 216.0000 0000000   0.0000  72.0000 13.83924389    16
CTC1_L_00566091-02
1 86074U 24278XF  26037.47809028  .00000000  00000+0  00000-0 0  9993
2 86074  99.3000 216.0000 0000000   0.0000 252.0000 13.83924389    17
CTC1_L_00566092-01
1 86075U 22174QX  26037.47809028  .00000000  00000+0  00000-0 0  9997
2 86075  99.3000 218.4000 0000000   0.0000  76.8000 13.83924389    16
CTC1_L_00566092-02
1 86076U 24342BF  26037.47809028  .00000000  00000+0  00000-0 0  9997
2 86076  99.3000 218.4000 0000000   0.0000 256.8000 13.83924389    17
CTC1_L_00566093-01
1 86077U 25419IU  26037.47809028  .00000000  00000+0  00000-0 0  9994
2 86077  99.3000 220.8000 0000000   0.0000  81.6000 13.83924389    19
CTC1_L_00566093-02
1 86078U 25207KJ  26037.47809028  .00000000  00000+0  00000-0 0  9990
2 86078  99.3000 220.8000 0000000   0.0000 261.6000 13.83924389    10
